{
    "links": {
        "self": "http://www.neowsapp.com/rest/v1/neo/3653834?api_key=iIulBulltgU6a56xZRHN4H3l9WmuAYTsLGpBGhQ2"
    },
    "id": "3653834",
    "neo_reference_id": "3653834",
    "name": "(2013 WH25)",
    "designation": "2013 WH25",
    "nasa_jpl_url": "http://ssd.jpl.nasa.gov/sbdb.cgi?sstr=3653834",
    "absolute_magnitude_h": 29.6,
    "estimated_diameter": {
        "kilometers": {
            "estimated_diameter_min": 0.0031956189,
            "estimated_diameter_max": 0.007145621
        },
        "meters": {
            "estimated_diameter_min": 3.1956188672,
            "estimated_diameter_max": 7.1456210173
        },
        "miles": {
            "estimated_diameter_min": 0.0019856649,
            "estimated_diameter_max": 0.0044400817
        },
        "feet": {
            "estimated_diameter_min": 10.4843142043,
            "estimated_diameter_max": 23.4436392583
        }
    },
    "is_potentially_hazardous_asteroid": false,
    "close_approach_data": [
        {
            "close_approach_date": "2013-11-29",
            "close_approach_date_full": "2013-Nov-29 00:46",
            "epoch_date_close_approach": 1385685960000,
            "relative_velocity": {
                "kilometers_per_second": "21.0431935029",
                "kilometers_per_hour": "75755.4966103576",
                "miles_per_hour": "47071.5195465858"
            },
            "miss_distance": {
                "astronomical": "0.000894781",
                "lunar": "0.348069809",
                "kilometers": "133857.33171647",
                "miles": "83175.089048486"
            },
            "orbiting_body": "Earth"
        },
        {
            "close_approach_date": "2013-11-29",
            "close_approach_date_full": "2013-Nov-29 03:36",
            "epoch_date_close_approach": 1385696160000,
            "relative_velocity": {
                "kilometers_per_second": "20.1728220228",
                "kilometers_per_hour": "72622.1592819547",
                "miles_per_hour": "45124.5855827235"
            },
            "miss_distance": {
                "astronomical": "0.0012601662",
                "lunar": "0.4902046518",
                "kilometers": "188518.179365994",
                "miles": "117139.7648149572"
            },
            "orbiting_body": "Moon"
        },
        {
            "close_approach_date": "2060-04-13",
            "close_approach_date_full": "2060-Apr-13 14:17",
            "epoch_date_close_approach": 2849091420000,
            "relative_velocity": {
                "kilometers_per_second": "19.9038825495",
                "kilometers_per_hour": "71653.9771783217",
                "miles_per_hour": "44522.9948750522"
            },
            "miss_distance": {
                "astronomical": "0.4394107953",
                "lunar": "170.9307993717",
                "kilometers": "65734919.031886011",
                "miles": "40845784.6422125118"
            },
            "orbiting_body": "Earth"
        }
    ],
    "orbital_data": {
        "orbit_id": "4",
        "orbit_determination_date": "2017-04-06 08:43:34",
        "first_observation_date": "2013-11-28",
        "last_observation_date": "2013-11-28",
        "data_arc_in_days": null,
        "observations_used": 15,
        "orbit_uncertainty": "9",
        "minimum_orbit_intersection": ".000181145",
        "jupiter_tisserand_invariant": "4.083",
        "epoch_osculation": "2456624.5",
        "eccentricity": ".6705090356499323",
        "semi_major_axis": "1.594687718370583",
        "inclination": "2.955624810234052",
        "ascending_node_longitude": "246.9794346124482",
        "orbital_period": "735.5494940617058",
        "perihelion_distance": ".5254351941631326",
        "perihelion_argument": "279.2855077777562",
        "aphelion_distance": "2.663940242578033",
        "perihelion_time": "2456674.018699715887",
        "mean_anomaly": "335.7640620493394",
        "mean_motion": ".4894300151198246",
        "equinox": "J2000",
        "orbit_class": {
            "orbit_class_type": "APO",
            "orbit_class_description": "Near-Earth asteroid orbits which cross the Earth’s orbit similar to that of 1862 Apollo",
            "orbit_class_range": "a (semi-major axis) > 1.0 AU; q (perihelion) < 1.017 AU"
        }
    },
    "is_sentry_object": false
}